start=new Date('2022-02-02T00:00:00.000Z').valueOf();
sats=[{"REF_FRAME":"TEME","OBJECT_NAME":"STARLINK-1556","MEAN_ANOMALY":"293.7927","SEMIMAJOR_AXIS":"6925.298","PERIAPSIS":"545.978","SITE":"AFETR","MEAN_ELEMENT_THEORY":"SGP4","ECCENTRICITY":"0.00017120","OBJECT_TYPE":"PAYLOAD","CLASSIFICATION_TYPE":"U","EPHEMERIS_TYPE":"0","OBJECT_ID":"2020-055G","DECAY_DATE":null,"TLE_LINE2":"2 46033  53.0551   6.0434 0001712  66.3241 293.7927 15.06416361 83268","FILE":"3289675","COUNTRY_CODE":"US","PERIOD":"95.591","MEAN_MOTION_DOT":"0.00002892","MEAN_MOTION_DDOT":"0.0000000000000","ARG_OF_PERICENTER":"66.3241","MEAN_MOTION":"15.06416361","RCS_SIZE":"LARGE","TIME_SYSTEM":"UTC","APOAPSIS":"548.349","ELEMENT_SET_NO":"999","GP_ID":"195121517","RA_OF_ASC_NODE":"6.0434","CENTER_NAME":"EARTH","BSTAR":"0.00021287000000","REV_AT_EPOCH":"8326","LAUNCH_DATE":"2020-08-07","TLE_LINE1":"1 46033U 20055G   22032.88370183  .00002892  00000-0  21287-3 0  9999","NORAD_CAT_ID":"46033","EPOCH":"2022-02-01T21:12:31.838112","INCLINATION":"53.0551"},{"TLE_LINE1":"1 46034U 20055H   22032.35660355  .00004575  00000-0  32570-3 0  9992","LAUNCH_DATE":"2020-08-07","EPOCH":"2022-02-01T08:33:30.546720","NORAD_CAT_ID":"46034","INCLINATION":"53.0552","TIME_SYSTEM":"UTC","APOAPSIS":"548.327","MEAN_MOTION":"15.06412382","RCS_SIZE":"LARGE","CENTER_NAME":"EARTH","GP_ID":"195089936","RA_OF_ASC_NODE":"8.4190","ELEMENT_SET_NO":"999","REV_AT_EPOCH":"8318","BSTAR":"0.00032570000000","MEAN_ELEMENT_THEORY":"SGP4","EPHEMERIS_TYPE":"0","CLASSIFICATION_TYPE":"U","OBJECT_TYPE":"PAYLOAD","ECCENTRICITY":"0.00016620","DECAY_DATE":null,"TLE_LINE2":"2 46034  53.0552   8.4190 0001662  67.1205 292.9959 15.06412382 83184","OBJECT_ID":"2020-055H","MEAN_MOTION_DOT":"0.00004575","PERIOD":"95.591","MEAN_MOTION_DDOT":"0.0000000000000","ARG_OF_PERICENTER":"67.1205","FILE":"3289399","COUNTRY_CODE":"US","OBJECT_NAME":"STARLINK-1557","REF_FRAME":"TEME","SEMIMAJOR_AXIS":"6925.311","MEAN_ANOMALY":"292.9959","SITE":"AFETR","PERIAPSIS":"546.025"},{"TLE_LINE1":"1 46035U 20055J   22032.89475558 -.00000693  00000-0 -27631-4 0  9993","LAUNCH_DATE":"2020-08-07","EPOCH":"2022-02-01T21:28:26.882112","NORAD_CAT_ID":"46035","INCLINATION":"53.0545","TIME_SYSTEM":"UTC","APOAPSIS":"548.312","RCS_SIZE":"LARGE","MEAN_MOTION":"15.06404250","CENTER_NAME":"EARTH","GP_ID":"195121023","RA_OF_ASC_NODE":"5.9855","ELEMENT_SET_NO":"999","REV_AT_EPOCH":"8329","BSTAR":"-0.00002763100000","MEAN_ELEMENT_THEORY":"SGP4","CLASSIFICATION_TYPE":"U","EPHEMERIS_TYPE":"0","OBJECT_TYPE":"PAYLOAD","ECCENTRICITY":"0.00016050","DECAY_DATE":null,"TLE_LINE2":"2 46035  53.0545   5.9855 0001605  77.0767 283.0401 15.06404250 83297","OBJECT_ID":"2020-055J","PERIOD":"95.592","ARG_OF_PERICENTER":"77.0767","MEAN_MOTION_DDOT":"0.0000000000000","MEAN_MOTION_DOT":"-0.00000693","FILE":"3289675","COUNTRY_CODE":"US","OBJECT_NAME":"STARLINK-1558","REF_FRAME":"TEME","SEMIMAJOR_AXIS":"6925.336","MEAN_ANOMALY":"283.0401","SITE":"AFETR","PERIAPSIS":"546.089"},{"BSTAR":"0.00013724000000","REV_AT_EPOCH":"8329","RCS_SIZE":"LARGE","MEAN_MOTION":"15.06402022","TIME_SYSTEM":"UTC","APOAPSIS":"548.327","ELEMENT_SET_NO":"999","GP_ID":"195121275","RA_OF_ASC_NODE":"6.0476","CENTER_NAME":"EARTH","NORAD_CAT_ID":"46036","EPOCH":"2022-02-01T21:07:12.631584","INCLINATION":"53.0541","LAUNCH_DATE":"2020-08-07","TLE_LINE1":"1 46036U 20055K   22032.88000731  .00001763  00000-0  13724-3 0  9994","PERIAPSIS":"546.088","SITE":"AFETR","REF_FRAME":"TEME","OBJECT_NAME":"STARLINK-1560","MEAN_ANOMALY":"293.8137","SEMIMAJOR_AXIS":"6925.342","OBJECT_ID":"2020-055K","TLE_LINE2":"2 46036  53.0541   6.0476 0001617  66.3022 293.8137 15.06402022 83293","DECAY_DATE":null,"COUNTRY_CODE":"US","FILE":"3289675","PERIOD":"95.592","ARG_OF_PERICENTER":"66.3022","MEAN_MOTION_DDOT":"0.0000000000000","MEAN_MOTION_DOT":"0.00001763","MEAN_ELEMENT_THEORY":"SGP4","ECCENTRICITY":"0.00016170","OBJECT_TYPE":"PAYLOAD","EPHEMERIS_TYPE":"0","CLASSIFICATION_TYPE":"U"},{"LAUNCH_DATE":"2020-08-07","TLE_LINE1":"1 46037U 20055L   22032.34555078  .00000013  00000-0  19769-4 0  9998","INCLINATION":"53.0566","NORAD_CAT_ID":"46037","EPOCH":"2022-02-01T08:17:35.587392","ELEMENT_SET_NO":"999","GP_ID":"195088690","RA_OF_ASC_NODE":"8.4696","CENTER_NAME":"EARTH","RCS_SIZE":"LARGE","MEAN_MOTION":"15.06396183","TIME_SYSTEM":"UTC","APOAPSIS":"548.349","BSTAR":"0.00001976900000","REV_AT_EPOCH":"8320","ECCENTRICITY":"0.00016220","OBJECT_TYPE":"PAYLOAD","CLASSIFICATION_TYPE":"U","EPHEMERIS_TYPE":"0","MEAN_ELEMENT_THEORY":"SGP4","FILE":"3289399","COUNTRY_CODE":"US","PERIOD":"95.592","MEAN_MOTION_DOT":"0.00000013","MEAN_MOTION_DDOT":"0.0000000000000","ARG_OF_PERICENTER":"76.5020","OBJECT_ID":"2020-055L","DECAY_DATE":null,"TLE_LINE2":"2 46037  53.0566   8.4696 0001622  76.5020 283.6150 15.06396183 83201","MEAN_ANOMALY":"283.6150","SEMIMAJOR_AXIS":"6925.360","REF_FRAME":"TEME","OBJECT_NAME":"STARLINK-1565","PERIAPSIS":"546.102","SITE":"AFETR"},{"BSTAR":"0.00002177800000","REV_AT_EPOCH":"8328","MEAN_MOTION":"15.06394031","RCS_SIZE":"LARGE","APOAPSIS":"548.251","TIME_SYSTEM":"UTC","ELEMENT_SET_NO":"999","RA_OF_ASC_NODE":"6.0192","GP_ID":"195120274","CENTER_NAME":"EARTH","NORAD_CAT_ID":"46038","EPOCH":"2022-02-01T21:23:08.523168","INCLINATION":"53.0563","LAUNCH_DATE":"2020-08-07","TLE_LINE1":"1 46038U 20055M   22032.89107087  .00000043  00000-0  21778-4 0  9998","PERIAPSIS":"546.212","SITE":"AFETR","REF_FRAME":"TEME","OBJECT_NAME":"STARLINK-1567","MEAN_ANOMALY":"277.4771","SEMIMAJOR_AXIS":"6925.367","OBJECT_ID":"2020-055M","DECAY_DATE":null,"TLE_LINE2":"2 46038  53.0563   6.0192 0001472  82.6385 277.4771 15.06394031 83287","FILE":"3289675","COUNTRY_CODE":"US","MEAN_MOTION_DDOT":"0.0000000000000","PERIOD":"95.593","MEAN_MOTION_DOT":"0.00000043","ARG_OF_PERICENTER":"82.6385","MEAN_ELEMENT_THEORY":"SGP4","ECCENTRICITY":"0.00014720","OBJECT_TYPE":"PAYLOAD","CLASSIFICATION_TYPE":"U","EPHEMERIS_TYPE":"0"},{"ARG_OF_PERICENTER":"67.3018","PERIOD":"95.591","MEAN_MOTION_DDOT":"0.0000000000000","MEAN_MOTION_DOT":"-0.00002658","COUNTRY_CODE":"US","FILE":"3289675","TLE_LINE2":"2 46039  53.0559   5.9862 0001690  67.3018 292.8150 15.06421654 83284","DECAY_DATE":null,"OBJECT_ID":"2020-055N","EPHEMERIS_TYPE":"0","CLASSIFICATION_TYPE":"U","OBJECT_TYPE":"PAYLOAD","ECCENTRICITY":"0.00016900","MEAN_ELEMENT_THEORY":"SGP4","SITE":"AFETR","PERIAPSIS":"545.977","SEMIMAJOR_AXIS":"6925.282","MEAN_ANOMALY":"292.8150","OBJECT_NAME":"STARLINK-1569","REF_FRAME":"TEME","INCLINATION":"53.0559","EPOCH":"2022-02-01T21:33:44.264736","NORAD_CAT_ID":"46039","TLE_LINE1":"1 46039U 20055N   22032.89842899 -.00002658  00000-0 -15951-3 0  9997","LAUNCH_DATE":"2020-08-07","REV_AT_EPOCH":"8328","BSTAR":"-0.00015951000000","RA_OF_ASC_NODE":"5.9862","GP_ID":"195120524","CENTER_NAME":"EARTH","ELEMENT_SET_NO":"999","TIME_SYSTEM":"UTC","APOAPSIS":"548.318","MEAN_MOTION":"15.06421654","RCS_SIZE":"LARGE"},{"BSTAR":"0.00003008400000","REV_AT_EPOCH":"8325","MEAN_MOTION":"15.06398274","RCS_SIZE":"LARGE","APOAPSIS":"548.378","TIME_SYSTEM":"UTC","ELEMENT_SET_NO":"999","CENTER_NAME":"EARTH","GP_ID":"195121775","RA_OF_ASC_NODE":"5.8561","NORAD_CAT_ID":"46040","EPOCH":"2022-02-01T22:16:12.715680","INCLINATION":"53.0554","LAUNCH_DATE":"2020-08-07","TLE_LINE1":"1 46040U 20055P   22032.92792495  .00000167  00000-0  30084-4 0  9995","PERIAPSIS":"546.060","SITE":"AFETR","REF_FRAME":"TEME","OBJECT_NAME":"STARLINK-1576","MEAN_ANOMALY":"293.1816","SEMIMAJOR_AXIS":"6925.354","OBJECT_ID":"2020-055P","TLE_LINE2":"2 46040  53.0554   5.8561 0001674  66.9349 293.1816 15.06398274 83251","DECAY_DATE":null,"COUNTRY_CODE":"US","FILE":"3289675","PERIOD":"95.592","MEAN_MOTION_DDOT":"0.0000000000000","ARG_OF_PERICENTER":"66.9349","MEAN_MOTION_DOT":"0.00000167","MEAN_ELEMENT_THEORY":"SGP4","OBJECT_TYPE":"PAYLOAD","ECCENTRICITY":"0.00016740","CLASSIFICATION_TYPE":"U","EPHEMERIS_TYPE":"0"},{"RCS_SIZE":"LARGE","MEAN_MOTION":"15.06398733","TIME_SYSTEM":"UTC","APOAPSIS":"548.427","ELEMENT_SET_NO":"999","GP_ID":"195121518","RA_OF_ASC_NODE":"5.8445","CENTER_NAME":"EARTH","BSTAR":"0.00006154600000","REV_AT_EPOCH":"8326","LAUNCH_DATE":"2020-08-07","TLE_LINE1":"1 46041U 20055Q   22032.93066987  .00000635  00000-0  61546-4 0  9994","NORAD_CAT_ID":"46041","EPOCH":"2022-02-01T22:20:09.876768","INCLINATION":"53.0535","REF_FRAME":"TEME","OBJECT_NAME":"STARLINK-1580","MEAN_ANOMALY":"276.3235","SEMIMAJOR_AXIS":"6925.352","PERIAPSIS":"546.008","SITE":"AFETR","MEAN_ELEMENT_THEORY":"SGP4","OBJECT_TYPE":"PAYLOAD","ECCENTRICITY":"0.00017470","EPHEMERIS_TYPE":"0","CLASSIFICATION_TYPE":"U","OBJECT_ID":"2020-055Q","DECAY_DATE":null,"TLE_LINE2":"2 46041  53.0535   5.8445 0001747  83.7953 276.3235 15.06398733 83260","FILE":"3289675","COUNTRY_CODE":"US","MEAN_MOTION_DDOT":"0.0000000000000","PERIOD":"95.592","ARG_OF_PERICENTER":"83.7953","MEAN_MOTION_DOT":"0.00000635"},{"PERIAPSIS":"546.133","SITE":"AFETR","MEAN_ANOMALY":"296.5136","SEMIMAJOR_AXIS":"6925.347","REF_FRAME":"TEME","OBJECT_NAME":"STARLINK-1581","FILE":"3289675","COUNTRY_CODE":"US","ARG_OF_PERICENTER":"63.6013","PERIOD":"95.592","MEAN_MOTION_DDOT":"0.0000000000000","MEAN_MOTION_DOT":"-0.00000037","OBJECT_ID":"2020-055R","DECAY_DATE":null,"TLE_LINE2":"2 46042  53.0569   5.9214 0001559  63.6013 296.5136 15.06400374 83256","OBJECT_TYPE":"PAYLOAD","ECCENTRICITY":"0.00015590","CLASSIFICATION_TYPE":"U","EPHEMERIS_TYPE":"0","MEAN_ELEMENT_THEORY":"SGP4","BSTAR":"0.00001639100000","REV_AT_EPOCH":"8325","ELEMENT_SET_NO":"999","RA_OF_ASC_NODE":"5.9214","GP_ID":"195120774","CENTER_NAME":"EARTH","RCS_SIZE":"LARGE","MEAN_MOTION":"15.06400374","TIME_SYSTEM":"UTC","APOAPSIS":"548.292","INCLINATION":"53.0569","NORAD_CAT_ID":"46042","EPOCH":"2022-02-01T21:54:59.071680","LAUNCH_DATE":"2020-08-07","TLE_LINE1":"1 46042U 20055R   22032.91318370 -.00000037  00000-0  16391-4 0  9994"}];
